start=new Date('2022-11-24T00:00:00.000Z').valueOf();
sats=[{"OBJECT_TYPE":"PAYLOAD","CLASSIFICATION_TYPE":"U","FILE":"3668355","GP_ID":"218602918","EPHEMERIS_TYPE":"0","RA_OF_ASC_NODE":"315.1497","REF_FRAME":"TEME","MEAN_MOTION_DOT":"0.00002108","MEAN_MOTION":"15.08832856","EPOCH":"2022-11-23T16:21:52.995168","TLE_LINE2":"2 51728  53.2195 315.1497 0002838  33.5127 326.6044 15.08832856 42100","SEMIMAJOR_AXIS":"6917.902","REV_AT_EPOCH":"4210","MEAN_MOTION_DDOT":"0.0000000000000","DECAY_DATE":null,"CENTER_NAME":"EARTH","PERIOD":"95.438","OBJECT_ID":"2022-016Q","TIME_SYSTEM":"UTC","OBJECT_NAME":"STARLINK-3448","MEAN_ANOMALY":"326.6044","ECCENTRICITY":"0.00028380","RCS_SIZE":"LARGE","NORAD_CAT_ID":"51728","BSTAR":"0.00015054000000","COUNTRY_CODE":"US","LAUNCH_DATE":"2022-02-21","ARG_OF_PERICENTER":"33.5127","INCLINATION":"53.2195","TLE_LINE1":"1 51728U 22016Q   22327.68186337  .00002108  00000-0  15054-3 0  9991","APOAPSIS":"541.731","MEAN_ELEMENT_THEORY":"SGP4","SITE":"AFETR","ELEMENT_SET_NO":"999","PERIAPSIS":"537.804"},{"MEAN_MOTION_DDOT":"0.0000000000000","DECAY_DATE":null,"CENTER_NAME":"EARTH","REV_AT_EPOCH":"4210","OBJECT_ID":"2022-016R","TIME_SYSTEM":"UTC","OBJECT_NAME":"STARLINK-3523","ECCENTRICITY":"0.00030840","MEAN_ANOMALY":"325.0633","PERIOD":"95.438","CLASSIFICATION_TYPE":"U","FILE":"3668355","GP_ID":"218601173","EPHEMERIS_TYPE":"0","RA_OF_ASC_NODE":"315.0980","REF_FRAME":"TEME","OBJECT_TYPE":"PAYLOAD","TLE_LINE2":"2 51729  53.2182 315.0980 0003084  35.0562 325.0633 15.08833412 42103","SEMIMAJOR_AXIS":"6917.901","MEAN_MOTION_DOT":"-0.00001814","MEAN_MOTION":"15.08833412","EPOCH":"2022-11-23T16:37:46.446816","TLE_LINE1":"1 51729U 22016R   22327.69289869 -.00001814  00000-0 -95886-4 0  9994","APOAPSIS":"541.899","MEAN_ELEMENT_THEORY":"SGP4","SITE":"AFETR","PERIAPSIS":"537.632","ELEMENT_SET_NO":"999","RCS_SIZE":"LARGE","NORAD_CAT_ID":"51729","LAUNCH_DATE":"2022-02-21","ARG_OF_PERICENTER":"35.0562","INCLINATION":"53.2182","BSTAR":"-0.00009588600000","COUNTRY_CODE":"US"},{"ECCENTRICITY":"0.00027170","MEAN_ANOMALY":"330.6734","TIME_SYSTEM":"UTC","OBJECT_NAME":"STARLINK-3530","OBJECT_ID":"2022-016S","PERIOD":"95.438","CENTER_NAME":"EARTH","DECAY_DATE":null,"MEAN_MOTION_DDOT":"0.0000000000000","REV_AT_EPOCH":"4210","SEMIMAJOR_AXIS":"6917.888","TLE_LINE2":"2 51730  53.2163 315.1905 0002717  29.4411 330.6734 15.08837380 42106","EPOCH":"2022-11-23T16:11:16.473408","MEAN_MOTION":"15.08837380","MEAN_MOTION_DOT":"0.00000773","REF_FRAME":"TEME","RA_OF_ASC_NODE":"315.1905","GP_ID":"218601423","EPHEMERIS_TYPE":"0","FILE":"3668355","CLASSIFICATION_TYPE":"U","OBJECT_TYPE":"PAYLOAD","PERIAPSIS":"537.874","ELEMENT_SET_NO":"999","SITE":"AFETR","TLE_LINE1":"1 51730U 22016S   22327.67449622  .00000773  00000-0  66692-4 0  9993","MEAN_ELEMENT_THEORY":"SGP4","APOAPSIS":"541.633","INCLINATION":"53.2163","ARG_OF_PERICENTER":"29.4411","LAUNCH_DATE":"2022-02-21","COUNTRY_CODE":"US","BSTAR":"0.00006669200000","NORAD_CAT_ID":"51730","RCS_SIZE":"LARGE"},{"COUNTRY_CODE":"US","BSTAR":"0.00001170200000","INCLINATION":"53.2177","ARG_OF_PERICENTER":"34.9456","LAUNCH_DATE":"2022-02-21","NORAD_CAT_ID":"51731","RCS_SIZE":"LARGE","ELEMENT_SET_NO":"999","PERIAPSIS":"537.990","SITE":"AFETR","APOAPSIS":"541.585","TLE_LINE1":"1 51731U 22016T   22327.68554823 -.00000102  00000-0  11702-4 0  9994","MEAN_ELEMENT_THEORY":"SGP4","EPOCH":"2022-11-23T16:27:11.367072","MEAN_MOTION_DOT":"-0.00000102","MEAN_MOTION":"15.08826158","SEMIMAJOR_AXIS":"6917.923","TLE_LINE2":"2 51731  53.2177 315.1339 0002598  34.9456 325.1706 15.08826158 42109","OBJECT_TYPE":"PAYLOAD","REF_FRAME":"TEME","RA_OF_ASC_NODE":"315.1339","GP_ID":"218602675","EPHEMERIS_TYPE":"0","FILE":"3668355","CLASSIFICATION_TYPE":"U","PERIOD":"95.438","ECCENTRICITY":"0.00025980","MEAN_ANOMALY":"325.1706","OBJECT_NAME":"STARLINK-3514","TIME_SYSTEM":"UTC","OBJECT_ID":"2022-016T","REV_AT_EPOCH":"4210","DECAY_DATE":null,"CENTER_NAME":"EARTH","MEAN_MOTION_DDOT":"0.0000000000000"},{"RCS_SIZE":"LARGE","NORAD_CAT_ID":"51732","COUNTRY_CODE":"US","BSTAR":"0.00023523000000","ARG_OF_PERICENTER":"30.7680","INCLINATION":"53.2165","LAUNCH_DATE":"2022-02-21","SITE":"AFETR","TLE_LINE1":"1 51732U 22016U   22327.67081691  .00003458  00000-0  23523-3 0  9991","MEAN_ELEMENT_THEORY":"SGP4","APOAPSIS":"541.593","PERIAPSIS":"537.870","ELEMENT_SET_NO":"999","OBJECT_TYPE":"PAYLOAD","EPHEMERIS_TYPE":"0","GP_ID":"218602418","RA_OF_ASC_NODE":"315.2096","REF_FRAME":"TEME","CLASSIFICATION_TYPE":"U","FILE":"3668355","EPOCH":"2022-11-23T16:05:58.581024","MEAN_MOTION_DOT":"0.00003458","MEAN_MOTION":"15.08844596","TLE_LINE2":"2 51732  53.2165 315.2096 0002691  30.7680 329.3470 15.08844596 43241","SEMIMAJOR_AXIS":"6917.866","REV_AT_EPOCH":"4324","MEAN_MOTION_DDOT":"0.0000000000000","DECAY_DATE":null,"CENTER_NAME":"EARTH","PERIOD":"95.437","TIME_SYSTEM":"UTC","OBJECT_NAME":"STARLINK-3518","ECCENTRICITY":"0.00026910","MEAN_ANOMALY":"329.3470","OBJECT_ID":"2022-016U"},{"SEMIMAJOR_AXIS":"6917.920","TLE_LINE2":"2 51733  53.2183 316.3561 0002810  34.6530 325.4645 15.08827171 42061","EPOCH":"2022-11-23T09:55:02.771328","MEAN_MOTION_DOT":"-0.00000064","MEAN_MOTION":"15.08827171","REF_FRAME":"TEME","GP_ID":"218545205","RA_OF_ASC_NODE":"316.3561","EPHEMERIS_TYPE":"0","FILE":"3668134","CLASSIFICATION_TYPE":"U","OBJECT_TYPE":"PAYLOAD","ECCENTRICITY":"0.00028100","MEAN_ANOMALY":"325.4645","OBJECT_NAME":"STARLINK-3525","TIME_SYSTEM":"UTC","OBJECT_ID":"2022-016V","PERIOD":"95.438","CENTER_NAME":"EARTH","DECAY_DATE":null,"MEAN_MOTION_DDOT":"0.0000000000000","REV_AT_EPOCH":"4206","INCLINATION":"53.2183","ARG_OF_PERICENTER":"34.6530","LAUNCH_DATE":"2022-02-21","COUNTRY_CODE":"US","BSTAR":"0.00001408800000","NORAD_CAT_ID":"51733","RCS_SIZE":"LARGE","PERIAPSIS":"537.841","ELEMENT_SET_NO":"999","SITE":"AFETR","MEAN_ELEMENT_THEORY":"SGP4","TLE_LINE1":"1 51733U 22016V   22327.41322652 -.00000064  00000-0  14088-4 0  9997","APOAPSIS":"541.729"},{"TLE_LINE2":"2 51734  53.2177 316.4410 0002840  28.7180 331.3968 15.08841235 42057","SEMIMAJOR_AXIS":"6917.877","MEAN_MOTION_DOT":"-0.00003575","MEAN_MOTION":"15.08841235","EPOCH":"2022-11-23T09:28:32.398752","CLASSIFICATION_TYPE":"U","FILE":"3668134","EPHEMERIS_TYPE":"0","GP_ID":"218543976","RA_OF_ASC_NODE":"316.4410","REF_FRAME":"TEME","OBJECT_TYPE":"PAYLOAD","OBJECT_ID":"2022-016W","OBJECT_NAME":"STARLINK-3450","TIME_SYSTEM":"UTC","MEAN_ANOMALY":"331.3968","ECCENTRICITY":"0.00028400","PERIOD":"95.437","MEAN_MOTION_DDOT":"0.0000000000000","CENTER_NAME":"EARTH","DECAY_DATE":null,"REV_AT_EPOCH":"4205","LAUNCH_DATE":"2022-02-21","ARG_OF_PERICENTER":"28.7180","INCLINATION":"53.2177","BSTAR":"-0.00020655000000","COUNTRY_CODE":"US","RCS_SIZE":"LARGE","NORAD_CAT_ID":"51734","PERIAPSIS":"537.777","ELEMENT_SET_NO":"999","TLE_LINE1":"1 51734U 22016W   22327.39481943 -.00003575  00000-0 -20655-3 0  9991","APOAPSIS":"541.706","MEAN_ELEMENT_THEORY":"SGP4","SITE":"AFETR"},{"SITE":"AFETR","MEAN_ELEMENT_THEORY":"SGP4","TLE_LINE1":"1 51735U 22016X   22327.66713492  .00000199  00000-0  30621-4 0  9991","APOAPSIS":"541.463","ELEMENT_SET_NO":"999","PERIAPSIS":"538.028","RCS_SIZE":"LARGE","NORAD_CAT_ID":"51735","COUNTRY_CODE":"US","BSTAR":"0.00003062100000","ARG_OF_PERICENTER":"38.5127","INCLINATION":"53.2173","LAUNCH_DATE":"2022-02-21","REV_AT_EPOCH":"4210","MEAN_MOTION_DDOT":"0.0000000000000","CENTER_NAME":"EARTH","DECAY_DATE":null,"PERIOD":"95.438","TIME_SYSTEM":"UTC","OBJECT_NAME":"STARLINK-3517","ECCENTRICITY":"0.00024830","MEAN_ANOMALY":"321.6042","OBJECT_ID":"2022-016X","OBJECT_TYPE":"PAYLOAD","GP_ID":"218602175","EPHEMERIS_TYPE":"0","RA_OF_ASC_NODE":"315.2202","REF_FRAME":"TEME","CLASSIFICATION_TYPE":"U","FILE":"3668355","EPOCH":"2022-11-23T16:00:40.457088","MEAN_MOTION_DOT":"0.00000199","MEAN_MOTION":"15.08839953","TLE_LINE2":"2 51735  53.2173 315.2202 0002483  38.5127 321.6042 15.08839953 42108","SEMIMAJOR_AXIS":"6917.881"},{"MEAN_MOTION_DOT":"-0.00000355","MEAN_MOTION":"15.08834134","EPOCH":"2022-11-23T10:53:19.878720","TLE_LINE2":"2 51736  53.2182 316.1636 0002778  31.4030 328.7127 15.08834134 42065","SEMIMAJOR_AXIS":"6917.898","OBJECT_TYPE":"PAYLOAD","CLASSIFICATION_TYPE":"U","FILE":"3668134","RA_OF_ASC_NODE":"316.1636","GP_ID":"218545477","EPHEMERIS_TYPE":"0","REF_FRAME":"TEME","PERIOD":"95.438","OBJECT_ID":"2022-016Y","TIME_SYSTEM":"UTC","OBJECT_NAME":"STARLINK-3447","ECCENTRICITY":"0.00027780","MEAN_ANOMALY":"328.7127","REV_AT_EPOCH":"4206","MEAN_MOTION_DDOT":"0.0000000000000","CENTER_NAME":"EARTH","DECAY_DATE":null,"BSTAR":"-0.00000416730000","COUNTRY_CODE":"US","LAUNCH_DATE":"2022-02-21","ARG_OF_PERICENTER":"31.4030","INCLINATION":"53.2182","RCS_SIZE":"LARGE","NORAD_CAT_ID":"51736","ELEMENT_SET_NO":"999","PERIAPSIS":"537.842","APOAPSIS":"541.685","TLE_LINE1":"1 51736U 22016Y   22327.45370230 -.00000355  00000-0 -41673-5 0  9994","MEAN_ELEMENT_THEORY":"SGP4","SITE":"AFETR"},{"CENTER_NAME":"EARTH","DECAY_DATE":null,"MEAN_MOTION_DDOT":"0.0000000000000","REV_AT_EPOCH":"4209","OBJECT_ID":"2022-016Z","MEAN_ANOMALY":"324.7242","ECCENTRICITY":"0.00027650","OBJECT_NAME":"STARLINK-3509","TIME_SYSTEM":"UTC","PERIOD":"95.437","FILE":"3668355","CLASSIFICATION_TYPE":"U","REF_FRAME":"TEME","GP_ID":"218601174","RA_OF_ASC_NODE":"315.2264","EPHEMERIS_TYPE":"0","OBJECT_TYPE":"PAYLOAD","SEMIMAJOR_AXIS":"6917.871","TLE_LINE2":"2 51737  53.2191 315.2264 0002765  35.3933 324.7242 15.08842952 42098","MEAN_MOTION":"15.08842952","MEAN_MOTION_DOT":"0.00000418","EPOCH":"2022-11-23T15:55:22.784160","MEAN_ELEMENT_THEORY":"SGP4","TLE_LINE1":"1 51737U 22016Z   22327.66345815  .00000418  00000-0  44373-4 0  9996","APOAPSIS":"541.649","SITE":"AFETR","ELEMENT_SET_NO":"999","PERIAPSIS":"537.824","NORAD_CAT_ID":"51737","RCS_SIZE":"LARGE","LAUNCH_DATE":"2022-02-21","INCLINATION":"53.2191","ARG_OF_PERICENTER":"35.3933","BSTAR":"0.00004437300000","COUNTRY_CODE":"US"}];
